GLOBALSTAR M075         
1 37192U 10054E   25328.50071617 -.00000092  00000+0  67640-4 0  9997
2 37192  51.9966  53.4155 0000612 116.1297 256.8508 12.62269818696098
GLOBALSTAR M073         
1 37193U 10054F   25328.77352417 -.00000087  00000+0  95807-4 0  9997
2 37193  52.0079 326.5312 0000271  20.8004 150.6474 12.62264566698116
GLOBALSTAR M083         
1 37739U 11033A   25328.62786051 -.00000075  00000+0  16219-3 0  9996
2 37739  51.9866 275.4825 0000466  41.8788 129.2230 12.62264705667116
GLOBALSTAR M088         
1 37740U 11033B   25328.73883825 -.00000092  00000+0  65560-4 0  9990
2 37740  52.0188 181.0775 0001165  88.0362 346.6103 12.62270514662676
GLOBALSTAR M091         
1 37741U 11033C   25328.73856138 -.00000108  00000+0 -23923-4 0  9994
2 37741  51.9963 144.3450 0001025 107.4979 265.5998 12.62262030663466
GLOBALSTAR M085         
1 37742U 11033D   25328.64607764 -.00000106  00000+0 -11720-4 0  9994
2 37742  52.0118  95.7380 0000836 127.8039 245.3327 12.62266825663967
GLOBALSTAR M081         
1 37743U 11033E   25328.69256556 -.00000110  00000+0 -33710-4 0  9997
2 37743  51.9951  98.2649 0000707 112.8596 351.9294 12.62270566664118
GLOBALSTAR M089         
1 37744U 11033F   25328.66206774 -.00000097  00000+0  36170-4 0  9998
2 37744  51.9945  52.5549 0000644  95.5826  51.6121 12.62272486664955
